STARLINK-36340          
1 68188U 26050X   26078.56537335 -.00691967  17220-3 -12834-2 0  9999
2 68188  53.1619 232.5131 0000884 330.3319  29.7662 16.00370058  1932
STARLINK-36305          
1 68189U 26050Y   26078.56515448 -.00680572  16745-3 -12521-2 0  9995
2 68189  53.1619 232.5118 0000664 330.0991  30.0002 16.00507461  1930
STARLINK-37071          
1 68190U 26050Z   26078.56469545 -.00685813  17028-3 -12410-2 0  9998
2 68190  53.1620 232.5085 0000787 120.8561 239.2548 16.00795573  2034
STARLINK-37091          
1 68191U 26050AA  26078.56446108 -.00661998  16019-3 -11877-2 0  9992
2 68191  53.1618 232.5067 0000718 334.0180  26.0815 16.00938134  2033
STARLINK-37098          
1 68192U 26050AB  26078.56422956 -.00678632  16763-3 -12086-2 0  9990
2 68192  53.1618 232.5054 0000647 327.3796  32.7195 16.01069674  2039
STARLINK-37090          
1 68193U 26050AC  26078.56374858 -.00651387  15641-3 -11396-2 0  9993
2 68193  53.1621 232.5012 0000711 333.6069  26.4927 16.01369308  2033
STARLINK-37093          
1 68194U 26050AD  26078.56490579 -.00668674  16258-3 -12185-2 0  9992
2 68194  53.1623 232.5098 0001079 125.0257 235.0876 16.00670231  2030
STARLINK-37058          
1 68195U 26050AE  26078.31433581 -.00749084  20203-3 -12605-2 0  9993
2 68195  53.1616 233.7917 0002524 340.0442  20.0490 16.02049525   431
YAOGAN-50 02            
1 68196U 26051A   26079.00002888  .00000241  00000+0  28234-4 0  9993
2 68196 141.9942 256.6193 0085589 153.1893 207.3280 14.02354822   631
CZ-6A R/B               
1 68197U 26051B   26080.37188536  .00001609  00000+0  22917-3 0  9991
2 68197 142.0316 265.8125 0185780 134.2387 227.3755 14.56362782   865
2026-052A               
1 68198U 26052A   26080.98363596  .00009069  00000+0  56281-3 0  9990
2 68198  97.5373 157.1418 0012466 243.4264 116.5688 15.09868364   880
YUXING-3 06             
1 68199U 26052B   26080.91675911  .00004828  00000+0  30054-3 0  9999
2 68199  97.5375 157.0767 0011585 245.1207 114.8818 15.10009530   875
